CSS (TIANHE)            
1 48274U 21035A   24007.41581300  .00031228  00000+0  34549-3 0  9994
2 48274  41.4700 351.3497 0005138  42.8490 317.2749 15.62322512153774
